[{"OBJECT_NAME":"OUTPOST MISSION 1","OBJECT_ID":"2023-084BK","EPOCH":"2026-03-09T23:19:35.444064","MEAN_MOTION":15.70083334,"ECCENTRICITY":0.00047289,"INCLINATION":97.5968,"RA_OF_ASC_NODE":222.1792,"ARG_OF_PERICENTER":254.2575,"MEAN_ANOMALY":105.8165,"EPHEMERIS_TYPE":0,"CLASSIFICATION_TYPE":"U","NORAD_CAT_ID":56226,"ELEMENT_SET_NO":999,"REV_AT_EPOCH":15332,"BSTAR":0.000839791,"MEAN_MOTION_DOT":0.00102103,"MEAN_MOTION_DDOT":0},{"OBJECT_NAME":"STARLINK-11159 [DTC]","OBJECT_ID":"2024-154C","EPOCH":"2026-03-09T10:58:08.433984","MEAN_MOTION":15.6970028,"ECCENTRICITY":0.00010774,"INCLINATION":53.1596,"RA_OF_ASC_NODE":132.7221,"ARG_OF_PERICENTER":61.8574,"MEAN_ANOMALY":298.2552,"EPHEMERIS_TYPE":0,"CLASSIFICATION_TYPE":"U","NORAD_CAT_ID":60905,"ELEMENT_SET_NO":999,"REV_AT_EPOCH":8847,"BSTAR":1.2563066e-5,"MEAN_MOTION_DOT":9.33e-6,"MEAN_MOTION_DDOT":0}]
