OUTPOST MISSION 1       
1 56226U 23084BK  26068.97193801  .00102103  00000+0  83979-3 0  9993
2 56226  97.5968 222.1792 0004729 254.2575 105.8165 15.70083334153328
STARLINK-11159 [DTC]    
1 60905U 24154C   26068.45704206  .00000933  00000+0  12563-4 0  9991
2 60905  53.1596 132.7221 0001077  61.8574 298.2552 15.69700280 88473
